324P/LaSagra,e,21.3991,270.5727,57.5167,3.096240,0.1809056,0.15303056,218.7156,08/25.0/2024,2000,g 13.0,4.0
# From MPEC 2024-LE0
325P/Yang-Gao,e,16.8441,256.8650,344.9193,3.545829,0.1476139,0.58914766,130.2301,08/25.0/2024,2000,g 14.0,4.0
# From MPEC 2024-LE0
326P/Hill,e,2.4721,99.7659,278.5423,4.073135,0.1198977,0.32034654,28.6624,08/25.0/2024,2000,g 13.5,4.0
# From MPEC 2024-M41
327P/VanNess,e,36.2421,173.9938,185.0421,3.562584,0.1465738,0.56280017,105.9439,08/25.0/2024,2000,g 16.0,4.0
# From MPEC 2024-Q42
328P/LONEOS-Tucker,e,17.6734,341.6088,30.6621,4.188943,0.1149602,0.55277476,3.2237,08/25.0/2024,2000,g 14.5,4.0
# From MPC101101
329P/LINEAR-Catalina,e,21.7172,87.6868,343.5734,5.184215,0.0834987,0.67884942,265.9422,08/25.0/2024,2000,g 13.5,4.0
# From MPEC 2023-J29
330P/Catalina,e,15.7333,293.0806,188.8202,6.617028,0.0579041,0.55012511,168.9854,08/25.0/2024,2000,g 12.0,4.0
# From MPEC 2024-Q20
331P/Gibbs,e,9.7401,216.7493,185.2058,3.003854,0.1893154,0.04151703,268.2333,08/25.0/2024,2000,g 12.0,4.0
# From MPEC 2016-K18
332P/Ikeya-Murakami,e,9.3834,3.7569,152.2890,3.086619,0.1817521,0.48956229,200.4277,08/25.0/2024,2000,g 18.0,4.0
# From MPEC 2016-K18
332P-A/Ikeya-Murakami,e,9.3838,152.3103,3.7361,3.086611,0.1817529,0.48956779,200.4269,08/25.0/2024,2000,g  9.0,4.0
# From MPEC 2016-EI8
332P-B/Ikeya-Murakami,e,9.3805,3.8028,152.3711,3.082329,0.1821317,0.48970701,359.9699,03/17.0/2016,2000,g 19.0,4.0
# From MPEC 2016-K18
332P-C/Ikeya-Murakami,e,9.3829,152.3016,3.7365,3.086577,0.1817559,0.48957335,200.4444,08/25.0/2024,2000,g 16.5,4.0
# From MPEC 2016-ED0
332P-D/Ikeya-Murakami,e,9.3761,3.7923,152.4393,3.081138,0.1822373,0.48977814,359.9486,03/17.0/2016,2000,g 19.0,4.0
# From MPEC 2016-ED0
332P-E/Ikeya-Murakami,e,9.3774,3.8228,152.2825,3.079877,0.1823493,0.48922008,359.9889,03/17.0/2016,2000,g 21.0,4.0
# From MPEC 2016-ED0
332P-F/Ikeya-Murakami,e,9.5293,3.4757,152.8203,3.163214,0.1751908,0.49918860,359.8501,03/17.0/2016,2000,g 21.0,4.0
# From MPEC 2016-ED0
332P-G/Ikeya-Murakami,e,9.2523,3.6955,154.4000,3.050519,0.1849880,0.49200362,359.9006,03/19.0/2016,2000,g 19.0,4.0
# From MPC100285
332P-H/Ikeya-Murakami,e,9.3834,152.3022,3.7362,3.086759,0.1817398,0.48960907,200.3614,08/25.0/2024,2000,g 19.0,4.0
# From MPEC 2016-ED0
332P-I/Ikeya-Murakami,e,9.3791,3.8048,152.3297,3.081767,0.1821815,0.48955490,359.9360,03/17.0/2016,2000,g 20.5,2.0
# From MPEC 2016-EI8
332P-J/Ikeya-Murakami,e,9.4296,3.6729,152.7712,3.115165,0.1792596,0.49429435,359.8613,03/17.0/2016,2000,g 20.5,2.0
# From MPEC 2024-NE4
333P/LINEAR,e,132.0216,115.7057,26.0184,4.220328,0.1136802,0.73629008,349.0526,08/25.0/2024,2000,g 15.0,4.0
# From MPEC 2023-J29
334P/NEAT,e,20.3716,90.4465,90.0380,6.828129,0.0552397,0.35133358,145.8194,08/25.0/2024,2000,g 10.5,4.0
# From MPEC 2023-M14
335P/Gibbs,e,7.2950,330.8082,162.3035,3.577589,0.1456527,0.54660840,108.3384,08/25.0/2024,2000,g 16.8,4.0
# From MPC105244
336P/McNaught,e,17.8312,298.2067,308.6247,5.037828,0.0871644,0.44431015,241.3404,08/25.0/2024,2000,g 13.5,4.0
# From MPEC 2024-A43
337P/WISE,e,15.7473,104.3329,163.0818,3.298232,0.1645441,0.49941388,128.7577,08/25.0/2024,2000,g 17.0,4.0
# From MPEC 2024-Q20
338P/McNaught,e,25.3855,9.7932,4.6008,3.893411,0.1282947,0.41236334,2.7831,08/25.0/2024,2000,g 12.0,4.0
# From MPC101101
339P/Gibbs,e,5.7332,27.4722,172.6865,3.699572,0.1385086,0.63565079,49.8736,08/25.0/2024,2000,g 17.0,4.0
# From MPC133426
340P/Boattini,e,2.0787,291.6623,36.0623,4.248411,0.1125549,0.28025047,318.4421,08/25.0/2024,2000,g 14.3,4.0
# From MPEC 2023-J29
341P/Gibbs,e,3.7964,29.9596,312.3434,4.287041,0.1110370,0.41533911,333.2782,08/25.0/2024,2000,g 12.5,4.0
# From MPC101101
342P/SOHO,e,11.6948,73.3223,27.6338,3.041073,0.1858505,0.98294432,0.0000,02/07.5580/2027,2000,g  9.0,4.0
# From MPEC 2024-PC5
343P/NEAT-LONEOS,e,5.5971,257.0574,137.5941,5.457516,0.0773057,0.58515060,213.3811,08/25.0/2024,2000,g 14.0,4.0
# From MPEC 2023-J29
344P/Read,e,3.4991,273.1006,140.5767,4.856880,0.0920806,0.42379213,262.0676,08/25.0/2024,2000,g 13.0,4.0
# From MPEC 2024-Q20
345P/LINEAR,e,2.7280,154.5105,196.6728,4.031389,0.1217649,0.22126382,359.3203,08/25.0/2024,2000,g 12.0,4.0
# From MPEC 2022-K19
346P/Catalina,e,22.2183,102.4565,336.0315,4.469913,0.1042931,0.50388813,286.3506,08/25.0/2024,2000,g 14.0,4.0
# From MPEC 2024-M41
347P/PANSTARRS,e,11.7652,260.9896,98.2572,3.604102,0.1440484,0.38682387,57.9654,08/25.0/2024,2000,g 15.0,4.0
# From MPEC 2022-ED3
348P/PANSTARRS,e,17.7389,312.9238,135.7314,3.151867,0.1761377,0.30741820,162.7412,08/25.0/2024,2000,g 14.0,4.0
# From MPEC 2024-LE0
349P/Lemmon,e,5.4885,331.7468,255.7845,3.578576,0.1455924,0.29858129,13.0918,08/25.0/2024,2000,g 14.0,4.0
# From MPC111775
350P/McNaught,e,7.3638,65.2930,140.0079,4.081175,0.1195436,0.09451155,291.9540,08/25.0/2024,2000,g 14.0,4.0
# From MPC105244
351P/Wiegert-PANSTARRS,e,12.7748,352.6768,283.3096,4.440757,0.1053219,0.29476115,337.5270,08/25.0/2024,2000,g 12.5,4.0
# From MPEC 2023-J29
352P/Skiff,e,21.0108,28.0202,309.4024,6.653231,0.0574322,0.61658858,150.6038,08/25.0/2024,2000,g 13.2,4.0
# From MPEC 2020-AA5
353P/McNaught,e,28.4169,121.5217,230.4920,4.170702,0.1157152,0.46990019,281.8479,08/25.0/2024,2000,g 14.5,4.0
# From MPEC 2024-EF7
354P/LINEAR,e,5.2507,320.0693,132.8410,2.289983,0.2844171,0.12449193,89.8701,08/25.0/2024,2000,g 15.5,4.0
# From MPEC 2023-CD7
355P/LINEAR-NEAT,e,11.0465,51.4329,336.3071,3.469626,0.1525036,0.50813501,22.2099,08/25.0/2024,2000,g 15.5,2.0
# From MPEC 2022-F14
356P/WISE,e,9.6405,160.8043,226.1618,4.153904,0.1164178,0.35603425,283.6174,08/25.0/2024,2000,g 14.0,4.0
# From MPC114609
357P/Hill,e,6.3141,44.5782,1.4658,4.455792,0.1047893,0.43612771,238.4152,08/25.0/2024,2000,g 15.5,4.0
# From MPEC 2024-EF7
358P/PANSTARRS,e,11.0663,85.6660,299.4889,3.147887,0.1764718,0.23960980,50.9909,08/25.0/2024,2000,g 18.0,4.0
# From MPC110086
359P/LONEOS,e,10.2629,149.7647,200.2970,4.641558,0.0985617,0.32343690,252.1545,08/25.0/2024,2000,g 13.5,4.0
# From MPC108599
360P/WISE,e,24.1089,2.2118,354.2450,3.696838,0.1386623,0.49912304,354.4877,08/25.0/2024,2000,g 19.5,6.0
# From MPEC 2023-CD7
361P/Spacewatch,e,13.9011,203.2494,219.0781,4.933393,0.0899468,0.43958683,201.6092,08/25.0/2024,2000,g 12.0,4.0
# From MPC114609
363P/Lemmon,e,5.3897,146.6354,340.8717,3.575386,0.1457873,0.51869528,348.3088,08/25.0/2024,2000,g 17.5,4.0
# From MPEC 2024-M41
364P/PANSTARRS,e,12.0817,46.1250,212.2983,2.891371,0.2004695,0.72120657,93.9741,08/25.0/2024,2000,g 17.0,2.0
# From MPC111775
365P/PANSTARRS,e,9.8499,86.6566,67.4237,3.156442,0.1757549,0.58146617,56.3456,08/25.0/2024,2000,g 17.0,4.0
# From MPC114610
366P/Spacewatch,e,8.8569,70.7230,153.0116,3.499101,0.1505807,0.34842038,336.0664,08/25.0/2024,2000,g 15.0,4.0
# From MPC112395
367P/Catalina,e,8.4596,58.6613,172.7099,3.510756,0.1498315,0.27994883,339.0799,08/25.0/2024,2000,g 17.5,2.0
# From MPC114610
368P/NEAT,e,15.4821,257.8599,118.9708,5.533282,0.0757234,0.62616626,164.3256,08/25.0/2024,2000,g 14.0,4.0
# From MPC114610
369P/Hill,e,10.3220,47.2955,13.2043,4.379479,0.1075401,0.55593510,229.8068,08/25.0/2024,2000,g 15.0,4.0
# From MPEC 2021-F20
370P/NEAT,e,19.4232,55.0820,356.7563,6.438083,0.0603350,0.61546143,136.6856,08/25.0/2024,2000,g 13.0,4.0
# From MPC114610
371P/LINEAR-Skiff,e,17.3851,67.2830,308.5682,4.180484,0.1153093,0.47683444,247.7266,08/25.0/2024,2000,g 16.0,4.0
# From MPEC 2020-K19
372P/McNaught,e,9.5065,27.5518,326.0152,4.511356,0.1028593,0.15161926,219.2958,08/25.0/2024,2000,g 13.5,4.0
# From MPEC 2021-F20
373P/Rinner,e,13.7702,231.9425,221.0772,3.798260,0.1331457,0.39368706,261.3518,08/25.0/2024,2000,g 14.5,4.0
# From MPC114610
374P/Larson,e,10.7638,7.8943,51.5289,4.971065,0.0889262,0.46376515,182.3018,08/25.0/2024,2000,g 14.0,4.0
# From MPEC 2021-F20
375P/Hill,e,17.3681,359.8767,119.3999,5.546435,0.0754541,0.65992404,156.3760,08/25.0/2024,2000,g 16.0,4.0
# From MPEC 2022-K19
376P/LONEOS,e,1.1662,312.8565,285.4072,5.756878,0.0713549,0.51384514,128.8888,08/25.0/2024,2000,g 12.5,4.0
# From MPEC 2022-N37
377P/Scotti,e,9.0255,226.0141,354.8741,6.696765,0.0568730,0.25113737,85.7394,08/25.0/2024,2000,g  9.5,4.0
# From MPEC 2024-D33
378P/McNaught,e,19.1486,93.8085,193.3776,6.291131,0.0624613,0.46471081,88.3833,08/25.0/2024,2000,g 12.0,4.0
# From MPC115889
379P/Spacewatch,e,12.4391,30.5011,184.4413,3.487604,0.1513259,0.35004737,277.3166,08/25.0/2024,2000,g 15.0,4.0
# From MPEC 2023-C45
380P/PANSTARRS,e,8.0202,127.9853,87.9079,4.430096,0.1057023,0.33638860,207.2881,08/25.0/2024,2000,g 12.5,4.0
# From MPEC 2021-J28
381P/LINEAR-Spacewatch,e,28.3550,173.2997,173.8516,7.143972,0.0516172,0.68100046,92.6434,08/25.0/2024,2000,g 17.5,2.0
# From MPEC 2024-MB8
382P/Larson,e,8.2641,171.5735,162.2149,5.929630,0.0682594,0.26970357,69.2852,08/25.0/2024,2000,g  8.0,4.0
# From MPEC 2022-OB6
383P/Christensen,e,12.3199,207.8530,133.7489,3.548265,0.1474620,0.59869805,260.2455,08/25.0/2024,2000,g 18.0,4.0
# From MPEC 2024-Q20
384P/Kowalski,e,7.2833,354.1996,37.7130,2.898285,0.1997526,0.61629577,354.9775,08/25.0/2024,2000,g 19.5,4.0
# From MPEC 2021-F20
385P/Hill,e,16.8262,357.0586,44.4203,4.288827,0.1109676,0.40207448,200.1823,08/25.0/2024,2000,g 13.0,4.0
# From MPEC 2021-L04
386P/PANSTARRS,e,15.2424,134.9163,353.0834,4.050071,0.1209233,0.41719003,177.2897,08/25.0/2024,2000,g 14.5,4.0
# From MPEC 2021-J28
387P/Boattini,e,8.9369,259.2410,162.8350,4.797177,0.0938049,0.73709871,170.0309,08/25.0/2024,2000,g 15.0,4.0
# From MPEC 2021-S45
388P/Gibbs,e,23.8873,37.0267,42.3318,5.240594,0.0821549,0.61932968,152.5637,08/25.0/2024,2000,g 13.0,4.0
# From MPEC 2022-OB6
389P/Siding Spring,e,160.0846,218.8754,249.3695,5.632003,0.0737411,0.70526359,125.2905,08/25.0/2024,2000,g 16.0,4.0
# From MPEC 2024-EF7
390P/Gibbs,e,18.5339,152.2297,232.5056,5.815767,0.0702738,0.70708131,113.5759,08/25.0/2024,2000,g 12.0,4.0
# From MPEC 2021-F20
391P/Kowalski,e,21.2593,124.7841,187.1311,4.689246,0.0970621,0.11864712,228.3325,08/25.0/2024,2000,g  8.0,4.0
# From MPEC 2021-J28
